0 YAMAL 202
1 28089U 03053A   25229.85387122 -.00000093  00000-0  00000-0 0  9997
2 28089   5.5729  74.6382 0004335  93.8170 268.9236  1.00271272 79666
